NORAD_CAT_ID,OBJECT_NAME,OBJECT_TYPE,EPOCH,MEAN_MOTION,ECCENTRICITY,INCLINATION,RA_OF_ASC_NODE,ARG_OF_PERICENTER,MEAN_ANOMALY,BSTAR,MEAN_MOTION_DOT,MEAN_MOTION_DDOT,TLE_LINE0,TLE_LINE1,TLE_LINE2,SEMIMAJOR_AXIS,PERIOD,APOGEE,PERIGEE,DECAYED
53795.0,STARLINK-4742,PAYLOAD,2023-09-14 13:14:36,15.08829302,0.0001151,53.218,26.104,92.2967,267.8157,-0.0001428,-2.559e-05,0.0,0 STARLINK-4742,1 53795U 22111Y   23257.55180815 -.00002559  00000-0 -14280-3 0  9999,2 53795  53.2180  26.1040 0001151  92.2967 267.8157 15.08829302 56742,6917.913,95.438,540.574,538.982,0.0
53795.0,STARLINK-4742,PAYLOAD,2023-09-14 16:25:22,15.08828221,0.0001187,53.218,25.5094,93.708,266.4048,-0.00013462,-2.429e-05,0.0,0 STARLINK-4742,1 53795U 22111Y   23257.68428969 -.00002429  00000-0 -13462-3 0  9995,2 53795  53.2180  25.5094 0001187  93.7080 266.4048 15.08828221 56760,6917.916,95.438,540.603,538.96,0.0
53795.0,STARLINK-4742,PAYLOAD,2023-09-15 13:05:23,15.08842875,0.0001106,53.2182,21.6448,81.9469,278.1649,0.00025087,3.707e-05,0.0,0 STARLINK-4742,1 53795U 22111Y   23258.54540728  .00003707  00000-0  25087-3 0  9993,2 53795  53.2182  21.6448 0001106  81.9469 278.1649 15.08842875 56895,6917.872,95.437,540.502,538.971,0.0
53795.0,STARLINK-4742,PAYLOAD,2023-09-15 14:40:46,15.08851959,0.0001139,53.2183,21.3483,82.2683,277.8439,0.00042276,6.449e-05,0.0,0 STARLINK-4742,1 53795U 22111Y   23258.61164554  .00006449  00000-0  42276-3 0  9995,2 53795  53.2183  21.3483 0001139  82.2683 277.8439 15.08851959 56100,6917.844,95.437,540.497,538.921,0.0
53795.0,STARLINK-4742,PAYLOAD,2023-09-16 01:48:28,15.0884555,0.0001689,53.2182,19.2692,54.2402,305.8747,0.00051978,7.995e-05,0.0,0 STARLINK-4742,1 53795U 22111Y   23259.07532813  .00007995  00000-0  51978-3 0  9999,2 53795  53.2182  19.2692 0001689  54.2402 305.8747 15.08845550 56176,6917.863,95.437,540.897,538.56,0.0
53795.0,STARLINK-4742,PAYLOAD,2023-09-16 12:56:10,15.08843259,0.0001338,53.2181,17.18,119.3581,240.7545,0.00020636,2.998e-05,0.0,0 STARLINK-4742,1 53795U 22111Y   23259.53900874  .00002998  00000-0  20636-3 0  9991,2 53795  53.2181  17.1800 0001338 119.3581 240.7545 15.08843259 57049,6917.87,95.437,540.661,538.81,0.0
53795.0,STARLINK-4742,PAYLOAD,2023-09-16 14:31:33,15.08841976,0.0001237,53.2184,16.8839,113.2187,246.8936,0.00021777,3.18e-05,0.0,0 STARLINK-4742,1 53795U 22111Y   23259.60525022  .00003180  00000-0  21777-3 0  9998,2 53795  53.2184  16.8839 0001237 113.2187 246.8936 15.08841976 56250,6917.874,95.437,540.595,538.884,0.0
53795.0,STARLINK-4742,PAYLOAD,2023-09-17 12:46:57,15.08849746,0.0001312,53.2191,12.7231,100.8358,259.2782,0.00016734,2.377e-05,0.0,0 STARLINK-4742,1 53795U 22111Y   23260.53260726  .00002377  00000-0  16734-3 0  9993,2 53795  53.2191  12.7231 0001312 100.8358 259.2782 15.08849746 57199,6917.851,95.437,540.623,538.808,0.0
53795.0,STARLINK-4742,PAYLOAD,2023-09-18 11:02:21,15.08838356,0.0001248,53.2187,8.5609,88.2111,271.9024,0.00010241,1.342e-05,0.0,0 STARLINK-4742,1 53795U 22111Y   23261.45997294  .00001342  00000-0  10241-3 0  9990,2 53795  53.2187   8.5609 0001248  88.2111 271.9024 15.08838356 56532,6917.885,95.438,540.614,538.887,0.0
53795.0,STARLINK-4742,PAYLOAD,2023-09-18 12:37:44,15.08839924,0.0001284,53.2186,8.2638,90.1017,270.0122,0.00016345,2.314e-05,0.0,0 STARLINK-4742,1 53795U 22111Y   23261.52621189  .00002314  00000-0  16345-3 0  9996,2 53795  53.2186   8.2638 0001284  90.1017 270.0122 15.08839924 57348,6917.881,95.438,540.634,538.857,0.0
53795.0,STARLINK-4742,PAYLOAD,2023-09-19 10:53:07,15.08851903,0.0001349,53.2187,4.1,94.9312,265.1834,0.00017311,2.469e-05,0.0,0 STARLINK-4742,1 53795U 22111Y   23262.45356330  .00002469  00000-0  17311-3 0  9997,2 53795  53.2187   4.1000 0001349  94.9312 265.1834 15.08851903 56681,6917.844,95.437,540.642,538.776,0.0
53795.0,STARLINK-4742,PAYLOAD,2023-09-19 15:39:16,15.08866462,0.000147,53.2191,3.2089,100.7542,259.3616,0.00046679,7.154e-05,0.0,0 STARLINK-4742,1 53795U 22111Y   23262.65227603  .00007154  00000-0  46679-3 0  9994,2 53795  53.2191   3.2089 0001470 100.7542 259.3616 15.08866462 56712,6917.8,95.436,540.681,538.648,0.0
53795.0,STARLINK-4742,PAYLOAD,2023-09-20 12:19:19,15.08825782,0.0001552,53.2175,359.3382,108.4911,251.625,-0.00031337,-5.27e-05,0.0,0 STARLINK-4742,1 53795U 22111Y   23263.51341745 -.00005270  00000-0 -31337-3 0  9998,2 53795  53.2175 359.3382 0001552 108.4911 251.6250 15.08825782 56844,6917.924,95.438,540.863,538.715,0.0
53795.0,STARLINK-4742,PAYLOAD,2023-09-20 13:54:42,15.08822946,0.0001219,53.2174,359.0425,91.8715,268.2416,-0.00036209,-6.043e-05,0.0,0 STARLINK-4742,1 53795U 22111Y   23263.57965798 -.00006043  00000-0 -36209-3 0  9996,2 53795  53.2174 359.0425 0001219  91.8715 268.2416 15.08822946 57652,6917.933,95.439,540.641,538.954,0.0
53795.0,STARLINK-4742,PAYLOAD,2023-09-21 10:34:43,15.08836897,0.0001344,53.2179,355.1797,74.7556,285.3585,0.00036847,5.581e-05,0.0,0 STARLINK-4742,1 53795U 22111Y   23264.44078084  .00005581  00000-0  36847-3 0  9998,2 53795  53.2179 355.1797 0001344  74.7556 285.3585 15.08836897 56980,6917.89,95.438,540.685,538.825,0.0
53795.0,STARLINK-4742,PAYLOAD,2023-09-21 12:10:06,15.08837917,0.0001256,53.2172,354.8814,75.0717,285.0414,0.00093688,0.00014653,0.0,0 STARLINK-4742,1 53795U 22111Y   23264.50702419  .00014653  00000-0  93688-3 0  9997,2 53795  53.2172 354.8814 0001256  75.0717 285.0414 15.08837917 57796,6917.887,95.438,540.621,538.883,0.0
53795.0,STARLINK-4742,PAYLOAD,2023-09-21 15:20:53,15.08857609,0.0001468,53.2168,354.2874,57.0851,303.0282,0.0015518,0.00024507,0.0,0 STARLINK-4742,1 53795U 22111Y   23264.63950444  .00024507  00000-0  15518-2 0  9998,2 53795  53.2168 354.2874 0001468  57.0851 303.0282 15.08857609 57014,6917.827,95.436,540.707,538.676,0.0
53795.0,STARLINK-4742,PAYLOAD,2023-09-22 10:25:30,15.08860939,0.0001411,53.2166,350.7187,59.2351,300.878,0.00061177,9.467e-05,0.0,0 STARLINK-4742,1 53795U 22111Y   23265.43437899  .00009467  00000-0  61177-3 0  9992,2 53795  53.2166 350.7187 0001411  59.2351 300.8780 15.08860939 57138,6917.816,95.436,540.657,538.705,0.0
53795.0,STARLINK-4742,PAYLOAD,2023-09-22 12:00:53,15.08858134,0.0001683,53.2165,350.4227,54.7708,305.3442,0.00036374,5.508e-05,0.0,0 STARLINK-4742,1 53795U 22111Y   23265.50061897  .00005508  00000-0  36374-3 0  9994,2 53795  53.2165 350.4227 0001683  54.7708 305.3442 15.08858134 57944,6917.825,95.436,540.854,538.526,0.0
53795.0,STARLINK-4742,PAYLOAD,2023-09-23 11:51:40,15.08853042,0.0001509,53.2169,345.9616,60.9394,299.1749,0.00016179,2.289e-05,0.0,0 STARLINK-4742,1 53795U 22111Y   23266.49421449  .00002289  00000-0  16179-3 0  9990,2 53795  53.2169 345.9616 0001509  60.9394 299.1749 15.08853042 57297,6917.841,95.437,540.749,538.662,0.0
53795.0,STARLINK-4742,PAYLOAD,2023-09-24 05:20:54,15.08843354,0.0001637,53.2171,342.6927,71.0581,289.0588,6.6597e-05,7.72e-06,0.0,0 STARLINK-4742,1 53795U 22111Y   23267.22285723  .00000772  00000-0  66597-4 0  9990,2 53795  53.2171 342.6927 0001637  71.0581 289.0588 15.08843354 57409,6917.87,95.437,540.868,538.603,0.0
53795.0,STARLINK-4742,PAYLOAD,2023-09-24 11:42:27,15.08845349,0.0001496,53.2169,341.5013,74.7843,285.3315,2.0922e-06,-2.55e-06,0.0,0 STARLINK-4742,1 53795U 22111Y   23267.48781503 -.00000255  00000-0  20922-5 0  9995,2 53795  53.2169 341.5013 0001496  74.7843 285.3315 15.08845349 58240,6917.864,95.437,540.764,538.694,0.0
53795.0,STARLINK-4742,PAYLOAD,2023-09-25 09:57:51,15.08844096,0.0001468,53.2177,337.3397,77.119,282.9966,9.8567e-05,1.281e-05,0.0,0 STARLINK-4742,1 53795U 22111Y   23268.41517690  .00001281  00000-0  98567-4 0  9991,2 53795  53.2177 337.3397 0001468  77.1190 282.9966 15.08844096 57587,6917.868,95.437,540.748,538.717,0.0
53795.0,STARLINK-4742,PAYLOAD,2023-09-25 11:33:14,15.08847736,0.0001452,53.2167,337.0413,82.0502,278.0655,0.00015057,2.11e-05,0.0,0 STARLINK-4742,1 53795U 22111Y   23268.48141430  .00002110  00000-0  15057-3 0  9997,2 53795  53.2167 337.0413 0001452  82.0502 278.0655 15.08847736 58392,6917.857,95.437,540.726,538.717,0.0
53795.0,STARLINK-4742,PAYLOAD,2023-09-26 11:24:01,15.08844662,0.0001612,53.218,332.5811,98.7555,261.362,0.00016472,2.335e-05,0.0,0 STARLINK-4742,1 53795U 22111Y   23269.47501675  .00002335  00000-0  16472-3 0  9999,2 53795  53.2180 332.5811 0001612  98.7555 261.3620 15.08844662 58548,6917.866,95.437,540.846,538.616,0.0
53795.0,STARLINK-4742,PAYLOAD,2023-09-27 09:39:25,15.08840609,0.0001629,53.2177,328.4175,102.8551,257.2623,3.5839e-05,2.82e-06,0.0,0 STARLINK-4742,1 53795U 22111Y   23270.40237816  .00000282  00000-0  35839-4 0  9995,2 53795  53.2177 328.4175 0001629 102.8551 257.2623 15.08840609 57882,6917.879,95.438,540.87,538.617,0.0
53795.0,STARLINK-4742,PAYLOAD,2023-09-27 11:14:48,15.08840724,0.0001494,53.2174,328.1211,90.2596,269.8567,5.2266e-05,5.44e-06,0.0,0 STARLINK-4742,1 53795U 22111Y   23270.46861863  .00000544  00000-0  52266-4 0  9990,2 53795  53.2174 328.1211 0001494  90.2596 269.8567 15.08840724 58690,6917.878,95.438,540.777,538.71,0.0
53795.0,STARLINK-4742,PAYLOAD,2023-09-28 12:40:59,15.08850046,0.0001584,53.2173,323.3646,96.966,263.1513,-0.00014283,-2.561e-05,0.0,0 STARLINK-4742,1 53795U 22111Y   23271.52846184 -.00002561  00000-0 -14283-3 0  9996,2 53795  53.2173 323.3646 0001584  96.9660 263.1513 15.08850046 58059,6917.85,95.437,540.81,538.619,0.0
53795.0,STARLINK-4742,PAYLOAD,2023-09-29 12:31:46,15.08845739,0.0001666,53.2174,318.9007,99.6412,260.4768,0.00015488,2.178e-05,0.0,0 STARLINK-4742,1 53795U 22111Y   23272.52206111  .00002178  00000-0  15488-3 0  9997,2 53795  53.2174 318.9007 0001666  99.6412 260.4768 15.08845739 59008,6917.863,95.437,540.88,538.575,0.0
53795.0,STARLINK-4742,PAYLOAD,2023-09-30 09:11:46,15.08851412,0.0001553,53.2169,315.0341,98.5158,261.6011,0.00019576,2.83e-05,0.0,0 STARLINK-4742,1 53795U 22111Y   23273.38317562  .00002830  00000-0  19576-3 0  9992,2 53795  53.2169 315.0341 0001553  98.5158 261.6011 15.08851412 58335,6917.846,95.437,540.785,538.636,0.0
